OBJECT_NAME,OBJECT_ID,EPOCH,MEAN_MOTION,ECCENTRICITY,INCLINATION,RA_OF_ASC_NODE,ARG_OF_PERICENTER,MEAN_ANOMALY,EPHEMERIS_TYPE,CLASSIFICATION_TYPE,NORAD_CAT_ID,ELEMENT_SET_NO,REV_AT_EPOCH,BSTAR,MEAN_MOTION_DOT,MEAN_MOTION_DDOT
GSAT0216 (GALILEO 20),2017-079B,2026-07-10T04:24:02.909664,1.70474478,.00048214,55.0690,220.8736,276.9654,83.0589,0,U,43056,999,5339,0,.9E-6,0
GSAT0217 (GALILEO 21),2017-079C,2026-07-07T11:18:36.053568,1.70474257,.00039099,55.0679,220.9459,293.3909,66.6394,0,U,43057,999,5333,0,.81E-6,0
GSAT0218 (GALILEO 22),2017-079D,2026-07-10T00:54:14.294016,1.70474412,.00053248,55.0673,220.8729,274.1893,85.8286,0,U,43058,999,5340,0,.9E-6,0
BEIDOU-3 M7 (C27),2018-003A,2026-07-10T10:33:21.407040,1.86228296,.00045175,54.3060,301.5047,98.3583,261.7116,0,U,43107,999,5778,0,-.68E-6,0
BEIDOU-3 M8 (C28),2018-003B,2026-07-08T18:33:40.480416,1.86231265,.0002953,54.3004,301.5443,259.1391,100.8482,0,U,43108,999,5776,0,-.67E-6,0
BEIDOU-3 M4 (C22),2018-018A,2026-07-10T06:58:14.818656,1.86231221,.0007465,56.6705,62.3878,27.3573,332.7450,0,U,43207,999,5717,0,-.46E-6,0
BEIDOU-3 M3 (C21),2018-018B,2026-07-06T14:21:28.890720,1.86231254,.00078802,56.6666,62.5134,344.5989,15.4415,0,U,43208,999,5710,0,-.41E-6,0
BEIDOU-3 M9 (C29),2018-029A,2026-07-08T10:14:58.759872,1.86228294,.0001105,54.1736,299.2068,182.3801,177.6433,0,U,43245,999,5629,0,-.63E-6,0
BEIDOU-3 M10 (C30),2018-029B,2026-07-08T21:33:30.521952,1.86229513,.0003297,54.1707,299.2162,36.4294,323.6161,0,U,43246,999,5628,0,-.64E-6,0
IRNSS-1I,2018-035A,2026-07-06T20:05:50.528832,1.00279237,.00180874,28.7973,73.8917,180.4002,27.0525,0,U,43286,999,3027,0,.79E-6,0
COSMOS 2527 (756),2018-053A,2026-07-09T03:21:36.783648,2.13102220,.00066656,65.5893,73.1758,231.8684,128.1313,0,U,43508,999,6274,0,-.24E-6,0
BEIDOU-2 IGSO-7 (C16),2018-057A,2026-07-01T21:23:21.693984,1.00246939,.01049468,55.1981,162.9292,237.8611,308.6338,0,U,43539,999,2927,0,-.33E-6,0
GSAT0221 (GALILEO 25),2018-060A,2026-07-09T22:36:05.857344,1.70476012,.0002608,57.1621,341.1668,288.2741,71.6944,0,U,43564,999,4955,0,-.79E-6,0
GSAT0222 (GALILEO 26),2018-060B,2026-07-10T03:52:26.767488,1.70475804,.0002676,57.1649,341.1646,235.6789,124.2921,0,U,43565,999,4960,0,-.79E-6,0
GSAT0219 (GALILEO 23),2018-060C,2026-07-09T05:01:07.936896,1.70476041,.00017911,57.1645,341.1918,303.0651,56.9164,0,U,43566,999,4956,0,-.76E-6,0
GSAT0220 (GALILEO 24),2018-060D,2026-07-10T14:28:43.498272,1.70475685,.0002118,57.1637,341.1546,293.2596,66.7130,0,U,43567,999,4957,0,-.81E-6,0
BEIDOU-3 M5 (C23),2018-062A,2026-07-10T04:42:27.506016,1.86228527,.0005706,54.0866,181.5221,292.2291,67.7170,0,U,43581,999,5406,0,.11E-5,0
BEIDOU-3 M6 (C24),2018-062B,2026-07-10T01:26:00.707424,1.86227689,.0005243,54.0861,181.5158,9.9510,350.0665,0,U,43582,999,5406,0,.112E-5,0
BEIDOU-3 M12 (C26),2018-067A,2026-07-09T23:57:20.896128,1.86227772,.00079059,54.1817,180.2667,30.5943,329.4569,0,U,43602,999,5354,0,.111E-5,0
BEIDOU-3 M11 (C25),2018-067B,2026-07-10T03:11:55.832640,1.86227244,.00046186,54.1791,180.2259,13.9452,346.0721,0,U,43603,999,5357,0,.11E-5,0
BEIDOU-3 M13 (C32),2018-072A,2026-07-07T22:33:50.755392,1.86231551,.0006441,56.6422,61.9754,332.3795,27.6483,0,U,43622,999,5304,0,-.45E-6,0
BEIDOU-3 M14 (C33),2018-072B,2026-07-09T22:52:56.764128,1.86231182,.0005491,56.6460,61.9028,10.8304,349.2439,0,U,43623,999,5307,0,-.46E-6,0
BEIDOU-3 M16 (C35),2018-078A,2026-07-09T00:49:44.028768,1.86232218,.0006721,54.0687,299.2200,40.1381,319.9343,0,U,43647,999,5256,0,-.64E-6,0
BEIDOU-3 M15 (C34),2018-078B,2026-07-07T00:23:04.552224,1.86232386,.0003746,54.0663,299.2911,58.7000,301.3630,0,U,43648,999,5254,0,-.61E-6,0
BEIDOU-3 G1 (C59),2018-085A,2026-07-10T19:29:54.225024,1.00272867,.0008154,2.9246,96.7528,355.4773,288.9208,0,U,43683,999,2829,0,-.103E-5,0
COSMOS 2529 (757),2018-086A,2026-07-10T15:27:28.722816,2.13101987,.0012106,64.2968,191.8022,256.4546,103.4421,0,U,43687,999,5978,0,.118E-5,0
BEIDOU-3 M17 (C36),2018-093A,2026-07-09T08:36:45.180000,1.86228235,.0010162,54.1700,181.5443,293.4624,88.7509,0,U,43706,999,5195,0,.118E-5,0
BEIDOU-3 M18 (C37),2018-093B,2026-07-10T06:18:55.450656,1.86226328,.00080293,54.1710,181.5060,322.3122,37.6380,0,U,43707,999,5196,0,.11E-5,0
GPS BIII-1  (PRN 04),2018-109A,2026-07-10T04:32:39.694848,2.00562552,.00385279,55.6952,91.2795,197.3237,335.0463,0,U,43873,999,5553,0,-.35E-6,0
BEIDOU-2 G8 (C01),2019-027A,2026-07-10T21:08:13.500384,1.00273217,.0009789,1.7144,74.5107,283.1144,32.7398,0,U,44231,999,2631,0,-.24E-5,0
