GSAT0216 (GALILEO 20)   
1 43056U 17079B   26191.18336701  .00000090  00000+0  00000+0 0  9997
2 43056  55.0690 220.8736 0004821 276.9654  83.0589  1.70474478 53392
GSAT0217 (GALILEO 21)   
1 43057U 17079C   26188.47125062  .00000081  00000+0  00000+0 0  9992
2 43057  55.0679 220.9459 0003909 293.3909  66.6394  1.70474257 53335
GSAT0218 (GALILEO 22)   
1 43058U 17079D   26191.03766544  .00000090  00000+0  00000+0 0  9995
2 43058  55.0673 220.8729 0005324 274.1893  85.8286  1.70474412 53405
BEIDOU-3 M7             
1 43107U 18003A   26191.43983110 -.00000068  00000+0  00000+0 0  9998
2 43107  54.3060 301.5047 0004517  98.3583 261.7116  1.86228296 57783
BEIDOU-3 M8             
1 43108U 18003B   26189.77338519 -.00000067  00000+0  00000+0 0  9999
2 43108  54.3004 301.5443 0002953 259.1391 100.8482  1.86231265 57765
BEIDOU-3 M4             
1 43207U 18018A   26191.29044929 -.00000046  00000+0  00000+0 0  9991
2 43207  56.6705  62.3878 0007465  27.3573 332.7450  1.86231221 57170
BEIDOU-3 M3             
1 43208U 18018B   26187.59825105 -.00000041  00000+0  00000+0 0  9998
2 43208  56.6666  62.5134 0007880 344.5989  15.4415  1.86231254 57105
BEIDOU-3 M9             
1 43245U 18029A   26189.42706898 -.00000063  00000+0  00000+0 0  9996
2 43245  54.1736 299.2068 0001105 182.3801 177.6433  1.86228294 56297
BEIDOU-3 M10            
1 43246U 18029B   26189.89826993 -.00000064  00000+0  00000+0 0  9998
2 43246  54.1707 299.2162 0003297  36.4294 323.6161  1.86229513 56285
IRNSS-1I                
1 43286U 18035A   26187.83739038  .00000079  00000+0  00000+0 0  9999
2 43286  28.7973  73.8917 0018087 180.4002  27.0525  1.00279237 30279
COSMOS 2527 [GLONASS-M] 
1 43508U 18053A   26190.14000907 -.00000024  00000+0  00000+0 0  9991
2 43508  65.5893  73.1758 0006665 231.8684 128.1313  2.13102220 62745
BEIDOU-2 IGSO-7         
1 43539U 18057A   26182.89122331 -.00000033  00000+0  00000+0 0  9998
2 43539  55.1981 162.9292 0104946 237.8611 308.6338  1.00246939 29273
GSAT0221 (GALILEO 25)   
1 43564U 18060A   26190.94173446 -.00000079  00000+0  00000+0 0  9998
2 43564  57.1621 341.1668 0002608 288.2741  71.6944  1.70476012 49555
GSAT0222 (GALILEO 26)   
1 43565U 18060B   26191.16142092 -.00000079  00000+0  00000+0 0  9997
2 43565  57.1649 341.1646 0002676 235.6789 124.2921  1.70475804 49609
GSAT0219 (GALILEO 23)   
1 43566U 18060C   26190.20911964 -.00000076  00000+0  00000+0 0  9991
2 43566  57.1645 341.1918 0001791 303.0651  56.9164  1.70476041 49562
GSAT0220 (GALILEO 24)   
1 43567U 18060D   26191.60328123 -.00000081  00000+0  00000+0 0  9992
2 43567  57.1637 341.1546 0002118 293.2596  66.7130  1.70475685 49579
BEIDOU-3 M5             
1 43581U 18062A   26191.19615169  .00000110  00000+0  00000+0 0  9995
2 43581  54.0866 181.5221 0005706 292.2291  67.7170  1.86228527 54061
BEIDOU-3 M6             
1 43582U 18062B   26191.05973041  .00000112  00000+0  00000+0 0  9999
2 43582  54.0861 181.5158 0005243   9.9510 350.0665  1.86227689 54064
BEIDOU-3 M12            
1 43602U 18067A   26190.99815852  .00000111  00000+0  00000+0 0  9993
2 43602  54.1817 180.2667 0007905  30.5943 329.4569  1.86227772 53545
BEIDOU-3 M11            
1 43603U 18067B   26191.13328510  .00000110  00000+0  00000+0 0  9990
2 43603  54.1791 180.2259 0004618  13.9452 346.0721  1.86227244 53574
BEIDOU-3 M13            
1 43622U 18072A   26188.94017078 -.00000045  00000+0  00000+0 0  9994
2 43622  56.6422  61.9754 0006441 332.3795  27.6483  1.86231551 53047
BEIDOU-3 M14            
1 43623U 18072B   26190.95343477 -.00000046  00000+0  00000+0 0  9995
2 43623  56.6460  61.9028 0005491  10.8304 349.2439  1.86231182 53079
BEIDOU-3 M16            
1 43647U 18078A   26190.03453737 -.00000064  00000+0  00000+0 0  9997
2 43647  54.0687 299.2200 0006721  40.1381 319.9343  1.86232218 52566
BEIDOU-3 M15            
1 43648U 18078B   26188.01602491 -.00000061  00000+0  00000+0 0  9993
2 43648  54.0663 299.2911 0003746  58.7000 301.3630  1.86232386 52545
BEIDOU-3 G1             
1 43683U 18085A   26191.81243316 -.00000103  00000+0  00000+0 0  9996
2 43683   2.9246  96.7528 0008154 355.4773 288.9208  1.00272867 28299
COSMOS 2529 [GLONASS-M] 
1 43687U 18086A   26191.64408244  .00000118  00000+0  00000+0 0  9990
2 43687  64.2968 191.8022 0012106 256.4546 103.4421  2.13101987 59786
BEIDOU-3 M17            
1 43706U 18093A   26190.35885625  .00000118  00000+0  00000+0 0  9999
2 43706  54.1700 181.5443 0010162 293.4624  88.7509  1.86228235 51959
BEIDOU-3 M18            
1 43707U 18093B   26191.26314179  .00000110  00000+0  00000+0 0  9994
2 43707  54.1710 181.5060 0008029 322.3122  37.6380  1.86226328 51962
NAVSTAR 77 (USA 289)    
1 43873U 18109A   26191.18934832 -.00000035  00000+0  00000+0 0  9998
2 43873  55.6952  91.2795 0038527 197.3237 335.0463  2.00562552 55538
BEIDOU-2 G8             
1 44231U 19027A   26191.88071181 -.00000240  00000+0  00000+0 0  9991
2 44231   1.7144  74.5107 0009789 283.1144  32.7398  1.00273217 26310
